LEMUR-2-VALHALLA        
1 58900U 24022B   26192.05110852  .00010335  00000+0  25730-3 0  9995
2 58900  97.4092  42.3393 0009659  37.9200 322.2724 15.40403861135945
LEMUR-2-CAEL            
1 58903U 24022E   26190.54758611  .00013295  00000+0  31637-3 0  9992
2 58903  97.4076  41.7924 0007756  28.9089 331.2586 15.41725396135783
LEMUR-2-JOHNNYTRUONG    
1 59146U 24043BA  26190.38966179  .00034473  00000+0  39216-3 0  9999
2 59146  97.5385 343.4983 0004347 109.9411 250.2315 15.62219537131500
LEMUR-2-TOMATOKECHUP    
1 60471U 24149D   26191.16513986  .00008259  00000+0  23404-3 0  9995
2 60471  97.3795 273.2768 0003048 131.7960 228.3545 15.36515487105692
LEMUR-2-STELLA          
1 60533U 24149BT  26192.17005610  .00006900  00000+0  40208-3 0  9998
2 60533  97.6738 274.7368 0001088 114.5657 245.5687 15.12319994104121
LEMUR-2-MARHISYAM       
1 60536U 24149BW  26191.16652374  .00007816  00000+0  46249-3 0  9992
2 60536  97.6880 274.2005 0002818  77.1938 282.9606 15.11717897103952
LEMUR-2-AHMED-ASRAR     
1 60576U 24149DN  26191.17809680  .00008812  00000+0  49942-3 0  9991
2 60576  97.7004 276.3951 0000730 234.1758 125.9404 15.13238870104048
LEMUR-2-LLOYD           
1 60577U 24149DP  26192.17190216  .00006469  00000+0  40523-3 0  9993
2 60577  97.6747 273.3196 0004734  80.8597 279.3167 15.09703583104015
LEMUR-2-SQUIRRELCOMM    
1 60578U 24149DQ  26189.03451372  .00003681  00000+0  24740-3 0  9994
2 60578  97.6707 269.8822 0004746 354.4134   5.7039 15.07397331103542
LEMUR-2-SIERRINI        
1 60579U 24149DR  26191.98895867  .00007045  00000+0  42017-3 0  9998
2 60579  97.6838 274.6929 0006380 101.6319 258.5627 15.11454053104051
LEMUR-2-WILSON          
1 62694U 25009CP  26190.17913811  .00001582  00000+0  14892-3 0  9994
2 62694  97.7024 268.2582 0002438 357.7647   2.3562 14.95266051 80642
LEMUR-2-STAR-FOX        
1 62696U 25009CR  26192.19846713  .00003478  00000+0  26429-3 0  9991
2 62696  97.6922 273.6357 0002776  57.6752 302.4741 15.02812178 81165
LEMUR-2-ARIANNA         
1 62699U 25009CU  26192.19693601  .00003677  00000+0  27917-3 0  9994
2 62699  97.6860 273.3895 0003031  62.8427 297.3107 15.02812628 81163
LEMUR-2-ALISIA          
1 62706U 25009DB  26192.17017560  .00005049  00000+0  37831-3 0  9996
2 62706  97.6969 274.1792 0003798 141.7275 218.4220 15.03137168103766
LEMUR-2-ROUNDTRIPPER    
1 62711U 25009DG  26192.17818896  .00005683  00000+0  41354-3 0  9992
2 62711  97.7243 274.8263 0004386  72.6787 287.4918 15.04189188 81239
LEMUR-2-MYNAMEISJEFF    
1 62712U 25009DH  26191.04575780  .00006729  00000+0  48908-3 0  9994
2 62712  97.7289 274.0900 0003672 109.4233 250.7389 15.04168528 81063
